PROBA-1                 
1 26958U 01049B   26166.54362231  .00002453  00000+0  16052-3 0  9991
2 26958  97.9596 175.0185 0056339 127.2820 233.3563 15.07492372343377
CUTE-1 (CO-55)          
1 27844U 03031E   26166.49171905  .00000237  00000+0  12167-3 0  9990
2 27844  98.6736 175.0719 0009421 182.9125 177.2000 14.24334794191436
CUBESAT XI-IV (CO-57)   
1 27848U 03031J   26166.47932631  .00000199  00000+0  10658-3 0  9993
2 27848  98.6767 174.7736 0008908 202.2653 157.8140 14.23619986191134
APRIZESAT 4             
1 35684U 09041D   26166.43639101  .00000551  00000+0  72440-4 0  9999
2 35684  98.1413 241.7220 0042508 328.8513  31.0181 14.83877188911102
APRIZESAT 3             
1 35686U 09041F   26166.36022073  .00001450  00000+0  12938-3 0  9991
2 35686  98.2057 319.4965 0062761  73.6341 287.1767 14.96235706916102
PROBA-2                 
1 36037U 09059B   26166.45230860  .00000149  00000+0  45362-4 0  9998
2 36037  98.2449 349.8291 0011999 288.0626  71.9264 14.54861753881273
APRIZESAT 5             
1 37792U 11044E   26166.38582628  .00000964  00000+0  12883-3 0  9994
2 37792  98.2453  99.3751 0052492  10.1175 350.1080 14.81072391798526
APRIZESAT 6             
1 37793U 11044F   26166.32828894  .00000650  00000+0  98786-4 0  9996
2 37793  98.2366  76.7899 0044490  91.8000  26.4080 14.76913279796876
PROBA-V                 
1 39159U 13021A   26166.50260594  .00000049  00000+0  39535-4 0  9997
2 39159  98.3583 145.1923 0005073 127.3390 232.8252 14.23596663680878
APRIZESAT 7             
1 39416U 13066A   26166.40973713  .00001043  00000+0  10864-3 0  9993
2 39416  97.7709 119.6552 0034860 215.2754 144.6158 14.91560426680966
APRIZESAT 8             
1 39425U 13066K   26166.39265640  .00000825  00000+0  95293-4 0  9991
2 39425  97.8221 113.8855 0044486 292.6773  66.9742 14.87649694679405
BUGSAT-1 (TITA)         
1 40014U 14033E   26166.51770110  .00005802  00000+0  30678-3 0  9994
2 40014  98.0436 258.9681 0027819 184.1364 175.9641 15.15573621655582
SAUDISAT 4              
1 40016U 14033G   26166.36048748  .00000572  00000+0  81850-4 0  9992
2 40016  97.7580 312.5583 0046196  79.7594 280.8823 14.79542509645803
APRIZESAT 9             
1 40018U 14033J   26166.37499560  .00000582  00000+0  92962-4 0  9994
2 40018  97.9058 299.6179 0065550 205.0413 154.7612 14.74212203643298
APRIZESAT 10            
1 40019U 14033K   26166.28991171  .00000342  00000+0  61835-4 0  9999
2 40019  97.9647 293.2916 0077407 280.0162  79.2317 14.70880854641975
TECHDEMOSAT-1 (TDS-1)   
1 40076U 14037H   26166.50545127  .00006576  00000+0  37389-3 0  9998
2 40076  98.3811 158.5518 0004453 273.4037  86.6682 15.13272906647979
TECHNOSAT               
1 42829U 17042E   26166.38757556  .00003540  00000+0  25302-3 0  9992
2 42829  97.4276 324.1135 0018842  99.9086 260.4269 15.04949456486436
FLYING LAPTOP           
1 42831U 17042G   26166.51907706  .00003525  00000+0  27856-3 0  9993
2 42831  97.4672 322.1159 0019506 127.1002 233.2009 15.01137353486200
HAWK-A                  
1 43765U 18099H   26166.37916571  .00005151  00000+0  20855-3 0  9996
2 43765  97.3915 218.6385 0033146 292.6256  67.1476 15.24624414412824
HAWK-B                  
1 43794U 18099AN  26166.39855137  .00004657  00000+0  19975-3 0  9991
2 43794  97.3963 218.0765 0030600 311.5327  48.3285 15.22808797412765
HAWK-C                  
1 43799U 18099AT  26166.42528122  .00006260  00000+0  22641-3 0  9997
2 43799  97.3892 219.5876 0038795 292.3050  67.4078 15.28081756413646
SALSAT                  
1 46495U 20068K   26166.51026536  .00006457  00000+0  22659-3 0  9991
2 46495  97.8844 169.4726 0008149 315.3702  44.6880 15.29779241315105
HAWK-2C                 
1 47502U 21006CT  26166.39177166  .00005411  00000+0  16342-3 0  9997
2 47502  97.2276 210.7373 0006497 191.9647 168.1443 15.34644070299224
HAWK-2A                 
1 47505U 21006CW  26166.39428159  .00005441  00000+0  16426-3 0  9997
2 47505  97.2320 211.4166 0005901 195.2447 164.8620 15.34658965299227
HAWK-2B                 
1 47508U 21006CZ  26166.38991845  .00006174  00000+0  18554-3 0  9994
2 47508  97.2189 209.7470 0006481 193.4760 166.6312 15.34745432299227
HAWK-3B                 
1 48931U 21059BE  26166.53907348  .00037920  00000+0  32352-3 0  9990
2 48931  97.6653   3.0913 0003322 339.5031  20.6096 15.69438456277597
HAWK-3C                 
1 48948U 21059BX  26166.53875128  .00038758  00000+0  33058-3 0  9992
2 48948  97.6771   8.7743 0003650 341.3056  18.8070 15.69439647277595
HAWK-3A                 
1 48957U 21059CG  26166.53863403  .00039884  00000+0  33997-3 0  9998
2 48957  97.6715   5.9805 0003770 342.6233  17.4898 15.69448522277590
HAWK-5C                 
1 52754U 22057Y   26166.43157831  .00015908  00000+0  27218-3 0  9997
2 52754  97.6590 325.9849 0005117  88.4219 271.7618 15.51339272226074
HAWK-5B                 
1 52756U 22057AA  26166.43142838  .00015765  00000+0  26971-3 0  9996
2 52756  97.6600 324.3338 0005769  81.3501 278.8403 15.51339994226074
HAWK-5A                 
1 52757U 22057AB  26166.43121770  .00015990  00000+0  27355-3 0  9996
2 52757  97.6599 325.1651 0005683  84.3678 275.8221 15.51337988226078
